start=new Date('2023-06-08T00:00:00.000Z').valueOf();
sats=[{"BSTAR":"0.00031244000000","INCLINATION":"53.2160","PERIAPSIS":"538.949","MEAN_ANOMALY":"272.8311","REV_AT_EPOCH":"4104","ECCENTRICITY":"0.00009920","GP_ID":"233400929","EPOCH":"2023-06-07T07:01:43.590432","DECAY_DATE":null,"MEAN_ELEMENT_THEORY":"SGP4","OBJECT_ID":"2022-114AG","MEAN_MOTION":"15.08875893","RCS_SIZE":"LARGE","FILE":"3927174","APOAPSIS":"540.322","MEAN_MOTION_DOT":"0.00004693","OBJECT_NAME":"STARLINK-4780","NORAD_CAT_ID":"53848","TLE_LINE2":"2 53848  53.2160 131.7475 0000992  87.2795 272.8311 15.08875893 41040","CLASSIFICATION_TYPE":"U","SEMIMAJOR_AXIS":"6917.771","MEAN_MOTION_DDOT":"0.0000000000000","LAUNCH_DATE":"2022-09-19","ARG_OF_PERICENTER":"87.2795","COUNTRY_CODE":"US","TLE_LINE1":"1 53848U 22114AG  23158.29286563  .00004693  00000-0  31244-3 0  9997","SITE":"AFETR","TIME_SYSTEM":"UTC","EPHEMERIS_TYPE":"0","OBJECT_TYPE":"PAYLOAD","REF_FRAME":"TEME","CENTER_NAME":"EARTH","RA_OF_ASC_NODE":"131.7475","PERIOD":"95.435","ELEMENT_SET_NO":"999"},{"APOAPSIS":"540.542","MEAN_MOTION_DOT":"0.00000531","MEAN_MOTION":"15.08837497","FILE":"3927436","RCS_SIZE":"LARGE","MEAN_ELEMENT_THEORY":"SGP4","OBJECT_ID":"2022-114AH","DECAY_DATE":null,"EPOCH":"2023-06-07T15:14:37.867200","ECCENTRICITY":"0.00011410","GP_ID":"233433393","PERIAPSIS":"538.964","MEAN_ANOMALY":"275.2308","INCLINATION":"53.2163","REV_AT_EPOCH":"4109","BSTAR":"0.00005143000000","RA_OF_ASC_NODE":"130.3301","ELEMENT_SET_NO":"999","PERIOD":"95.438","CENTER_NAME":"EARTH","REF_FRAME":"TEME","TIME_SYSTEM":"UTC","SITE":"AFETR","EPHEMERIS_TYPE":"0","OBJECT_TYPE":"PAYLOAD","COUNTRY_CODE":"US","TLE_LINE1":"1 53849U 22114AH  23158.63516050  .00000531  00000-0  51430-4 0  9990","NORAD_CAT_ID":"53849","OBJECT_NAME":"STARLINK-4770","TLE_LINE2":"2 53849  53.2163 130.3301 0001141  84.8815 275.2308 15.08837497 41096","SEMIMAJOR_AXIS":"6917.888","CLASSIFICATION_TYPE":"U","MEAN_MOTION_DDOT":"0.0000000000000","LAUNCH_DATE":"2022-09-19","ARG_OF_PERICENTER":"84.8815"},{"ARG_OF_PERICENTER":"91.1505","LAUNCH_DATE":"2022-09-19","SEMIMAJOR_AXIS":"6917.914","TLE_LINE2":"2 53850  53.2160 128.7028 0001128  91.1505 268.9616 15.08828956 41141","MEAN_MOTION_DDOT":"0.0000000000000","CLASSIFICATION_TYPE":"U","NORAD_CAT_ID":"53850","OBJECT_NAME":"STARLINK-4767","TLE_LINE1":"1 53850U 22114AJ  23158.94425530 -.00000448  00000-0 -10060-4 0  9991","COUNTRY_CODE":"US","EPHEMERIS_TYPE":"0","OBJECT_TYPE":"PAYLOAD","SITE":"AFETR","TIME_SYSTEM":"UTC","REF_FRAME":"TEME","CENTER_NAME":"EARTH","PERIOD":"95.438","ELEMENT_SET_NO":"999","RA_OF_ASC_NODE":"128.7028","BSTAR":"-0.00001006000000","REV_AT_EPOCH":"4114","INCLINATION":"53.2160","PERIAPSIS":"538.999","MEAN_ANOMALY":"268.9616","GP_ID":"233432641","ECCENTRICITY":"0.00011280","EPOCH":"2023-06-07T22:39:43.657920","DECAY_DATE":null,"OBJECT_ID":"2022-114AJ","MEAN_ELEMENT_THEORY":"SGP4","RCS_SIZE":"LARGE","FILE":"3927436","MEAN_MOTION":"15.08828956","MEAN_MOTION_DOT":"-0.00000448","APOAPSIS":"540.559"},{"ELEMENT_SET_NO":"999","PERIOD":"95.438","RA_OF_ASC_NODE":"129.0930","CENTER_NAME":"EARTH","TLE_LINE1":"1 53851U 22114AK  23158.89275482  .00000206  00000-0  31063-4 0  9991","COUNTRY_CODE":"US","LAUNCH_DATE":"2022-09-19","ARG_OF_PERICENTER":"92.4709","SEMIMAJOR_AXIS":"6917.907","TLE_LINE2":"2 53851  53.2156 129.0930 0001127  92.4709 267.6412 15.08831447 41130","CLASSIFICATION_TYPE":"U","MEAN_MOTION_DDOT":"0.0000000000000","OBJECT_NAME":"STARLINK-4755","NORAD_CAT_ID":"53851","REF_FRAME":"TEME","OBJECT_TYPE":"PAYLOAD","EPHEMERIS_TYPE":"0","SITE":"AFETR","TIME_SYSTEM":"UTC","OBJECT_ID":"2022-114AK","MEAN_ELEMENT_THEORY":"SGP4","DECAY_DATE":null,"MEAN_MOTION_DOT":"0.00000206","APOAPSIS":"540.551","RCS_SIZE":"LARGE","FILE":"3927436","MEAN_MOTION":"15.08831447","REV_AT_EPOCH":"4113","MEAN_ANOMALY":"267.6412","PERIAPSIS":"538.992","INCLINATION":"53.2156","BSTAR":"0.00003106300000","EPOCH":"2023-06-07T21:25:34.016448","GP_ID":"233432391","ECCENTRICITY":"0.00011270"},{"PERIOD":"95.438","ELEMENT_SET_NO":"999","RA_OF_ASC_NODE":"125.3764","CENTER_NAME":"EARTH","REF_FRAME":"TEME","SITE":"AFETR","TIME_SYSTEM":"UTC","OBJECT_TYPE":"PAYLOAD","EPHEMERIS_TYPE":"0","COUNTRY_CODE":"US","TLE_LINE1":"1 53852U 22114AL  23158.64115026 -.00000357  00000-0 -43454-5 0  9999","NORAD_CAT_ID":"53852","OBJECT_NAME":"STARLINK-4797","LAUNCH_DATE":"2022-09-19","ARG_OF_PERICENTER":"88.5795","CLASSIFICATION_TYPE":"U","TLE_LINE2":"2 53852  53.2163 125.3764 0001205  88.5795 271.5335 15.08838354 41166","SEMIMAJOR_AXIS":"6917.885","MEAN_MOTION_DDOT":"0.0000000000000","MEAN_MOTION_DOT":"-0.00000357","APOAPSIS":"540.584","MEAN_MOTION":"15.08838354","RCS_SIZE":"LARGE","FILE":"3927436","MEAN_ELEMENT_THEORY":"SGP4","OBJECT_ID":"2022-114AL","DECAY_DATE":null,"EPOCH":"2023-06-07T15:23:15.382464","ECCENTRICITY":"0.00012050","GP_ID":"233433143","REV_AT_EPOCH":"4116","PERIAPSIS":"538.917","MEAN_ANOMALY":"271.5335","INCLINATION":"53.2163","BSTAR":"-0.00000434540000"},{"OBJECT_NAME":"STARLINK-4794","NORAD_CAT_ID":"53853","LAUNCH_DATE":"2022-09-19","ARG_OF_PERICENTER":"88.9586","SEMIMAJOR_AXIS":"6917.904","TLE_LINE2":"2 53853  53.2158 129.0491 0001037  88.9586 271.1525 15.08832191 41131","MEAN_MOTION_DDOT":"0.0000000000000","CLASSIFICATION_TYPE":"U","COUNTRY_CODE":"US","TLE_LINE1":"1 53853U 22114AM  23158.88538474 -.00000007  00000-0  17656-4 0  9997","SITE":"AFETR","TIME_SYSTEM":"UTC","EPHEMERIS_TYPE":"0","OBJECT_TYPE":"PAYLOAD","REF_FRAME":"TEME","CENTER_NAME":"EARTH","PERIOD":"95.438","ELEMENT_SET_NO":"999","RA_OF_ASC_NODE":"129.0491","BSTAR":"0.00001765600000","REV_AT_EPOCH":"4113","INCLINATION":"53.2158","PERIAPSIS":"539.052","MEAN_ANOMALY":"271.1525","ECCENTRICITY":"0.00010370","GP_ID":"233433893","EPOCH":"2023-06-07T21:14:57.241536","DECAY_DATE":null,"MEAN_ELEMENT_THEORY":"SGP4","OBJECT_ID":"2022-114AM","MEAN_MOTION":"15.08832191","RCS_SIZE":"LARGE","FILE":"3927436","MEAN_MOTION_DOT":"-0.00000007","APOAPSIS":"540.487"},{"INCLINATION":"53.2161","PERIAPSIS":"539.036","MEAN_ANOMALY":"273.5404","REV_AT_EPOCH":"4127","BSTAR":"0.00003938100000","EPOCH":"2023-06-07T22:25:15.863232","GP_ID":"233432142","ECCENTRICITY":"0.00010580","OBJECT_ID":"2022-114AN","MEAN_ELEMENT_THEORY":"SGP4","DECAY_DATE":null,"APOAPSIS":"540.499","MEAN_MOTION_DOT":"0.00000339","RCS_SIZE":"LARGE","FILE":"3927436","MEAN_MOTION":"15.08832740","TLE_LINE1":"1 53854U 22114AN  23158.93421138  .00000339  00000-0  39381-4 0  9998","COUNTRY_CODE":"US","SEMIMAJOR_AXIS":"6917.903","TLE_LINE2":"2 53854  53.2161 119.3668 0001058  86.5709 273.5404 15.08832740 41275","MEAN_MOTION_DDOT":"0.0000000000000","CLASSIFICATION_TYPE":"U","LAUNCH_DATE":"2022-09-19","ARG_OF_PERICENTER":"86.5709","OBJECT_NAME":"STARLINK-4800","NORAD_CAT_ID":"53854","REF_FRAME":"TEME","OBJECT_TYPE":"PAYLOAD","EPHEMERIS_TYPE":"0","TIME_SYSTEM":"UTC","SITE":"AFETR","RA_OF_ASC_NODE":"119.3668","PERIOD":"95.438","ELEMENT_SET_NO":"999","CENTER_NAME":"EARTH"},{"MEAN_ELEMENT_THEORY":"SGP4","OBJECT_ID":"2022-114AP","DECAY_DATE":null,"MEAN_MOTION_DOT":"0.00002013","APOAPSIS":"540.519","MEAN_MOTION":"15.08854795","FILE":"3927436","RCS_SIZE":"LARGE","REV_AT_EPOCH":"4113","PERIAPSIS":"538.881","MEAN_ANOMALY":"279.7775","INCLINATION":"53.2164","BSTAR":"0.00014447000000","EPOCH":"2023-06-07T21:21:36.617760","ECCENTRICITY":"0.00011840","GP_ID":"233432891","ELEMENT_SET_NO":"999","PERIOD":"95.437","RA_OF_ASC_NODE":"129.0716","CENTER_NAME":"EARTH","COUNTRY_CODE":"US","TLE_LINE1":"1 53855U 22114AP  23158.89000715  .00002013  00000-0  14447-3 0  9994","NORAD_CAT_ID":"53855","OBJECT_NAME":"STARLINK-4703","LAUNCH_DATE":"2022-09-19","ARG_OF_PERICENTER":"80.3351","CLASSIFICATION_TYPE":"U","TLE_LINE2":"2 53855  53.2164 129.0716 0001184  80.3351 279.7775 15.08854795 41134","SEMIMAJOR_AXIS":"6917.835","MEAN_MOTION_DDOT":"0.0000000000000","REF_FRAME":"TEME","TIME_SYSTEM":"UTC","SITE":"AFETR","OBJECT_TYPE":"PAYLOAD","EPHEMERIS_TYPE":"0"},{"RA_OF_ASC_NODE":"119.2744","ELEMENT_SET_NO":"999","PERIOD":"95.438","CENTER_NAME":"EARTH","REF_FRAME":"TEME","OBJECT_TYPE":"PAYLOAD","EPHEMERIS_TYPE":"0","SITE":"AFETR","TIME_SYSTEM":"UTC","TLE_LINE1":"1 53856U 22114AQ  23158.91947138 -.00000818  00000-0 -33336-4 0  9999","COUNTRY_CODE":"US","SEMIMAJOR_AXIS":"6917.894","TLE_LINE2":"2 53856  53.2158 119.2744 0001139  91.1374 268.9748 15.08835450 41277","CLASSIFICATION_TYPE":"U","MEAN_MOTION_DDOT":"0.0000000000000","LAUNCH_DATE":"2022-09-19","ARG_OF_PERICENTER":"91.1374","NORAD_CAT_ID":"53856","OBJECT_NAME":"STARLINK-4795","APOAPSIS":"540.547","MEAN_MOTION_DOT":"-0.00000818","RCS_SIZE":"LARGE","FILE":"3927436","MEAN_MOTION":"15.08835450","OBJECT_ID":"2022-114AQ","MEAN_ELEMENT_THEORY":"SGP4","DECAY_DATE":null,"EPOCH":"2023-06-07T22:04:02.327232","GP_ID":"233433643","ECCENTRICITY":"0.00011390","INCLINATION":"53.2158","PERIAPSIS":"538.971","MEAN_ANOMALY":"268.9748","REV_AT_EPOCH":"4127","BSTAR":"-0.00003333600000"},{"OBJECT_NAME":"STARLINK-4809","NORAD_CAT_ID":"53857","SEMIMAJOR_AXIS":"6917.897","TLE_LINE2":"2 53857  53.2164 129.5738 0000962  86.5432 273.5670 15.08834607 41110","MEAN_MOTION_DDOT":"0.0000000000000","CLASSIFICATION_TYPE":"U","ARG_OF_PERICENTER":"86.5432","LAUNCH_DATE":"2022-09-19","COUNTRY_CODE":"US","TLE_LINE1":"1 53857U 22114AR  23158.74184522 -.00000036  00000-0  15846-4 0  9998","SITE":"AFETR","TIME_SYSTEM":"UTC","OBJECT_TYPE":"PAYLOAD","EPHEMERIS_TYPE":"0","REF_FRAME":"TEME","CENTER_NAME":"EARTH","RA_OF_ASC_NODE":"129.5738","PERIOD":"95.438","ELEMENT_SET_NO":"999","BSTAR":"0.00001584600000","PERIAPSIS":"539.096","MEAN_ANOMALY":"273.5670","INCLINATION":"53.2164","REV_AT_EPOCH":"4111","ECCENTRICITY":"0.00009620","GP_ID":"233433394","EPOCH":"2023-06-07T17:48:15.427008","DECAY_DATE":null,"MEAN_ELEMENT_THEORY":"SGP4","OBJECT_ID":"2022-114AR","MEAN_MOTION":"15.08834607","FILE":"3927436","RCS_SIZE":"LARGE","APOAPSIS":"540.427","MEAN_MOTION_DOT":"-0.00000036"}];
